[{"OBJECT_NAME":"STARLINK-4742","OBJECT_ID":"2022-111Y","EPOCH":"2026-03-09T17:01:48.479232","MEAN_MOTION":15.08838182,"ECCENTRICITY":0.00014798,"INCLINATION":53.2152,"RA_OF_ASC_NODE":273.7184,"ARG_OF_PERICENTER":90.4778,"MEAN_ANOMALY":269.6384,"EPHEMERIS_TYPE":0,"CLASSIFICATION_TYPE":"U","NORAD_CAT_ID":53795,"ELEMENT_SET_NO":999,"REV_AT_EPOCH":19369,"BSTAR":-1.5570327e-5,"MEAN_MOTION_DOT":-5.36e-6,"MEAN_MOTION_DDOT":0},{"OBJECT_NAME":"TITAN 3C TRANSTAGE DEB","OBJECT_ID":"1965-082PP","EPOCH":"2026-03-08T23:49:16.681152","MEAN_MOTION":15.10619215,"ECCENTRICITY":0.0014169,"INCLINATION":32.2612,"RA_OF_ASC_NODE":312.9247,"ARG_OF_PERICENTER":37.7873,"MEAN_ANOMALY":322.3781,"EPHEMERIS_TYPE":0,"CLASSIFICATION_TYPE":"U","NORAD_CAT_ID":3454,"ELEMENT_SET_NO":999,"REV_AT_EPOCH":23071,"BSTAR":0.00075143557,"MEAN_MOTION_DOT":0.00012814,"MEAN_MOTION_DDOT":0}]
